start=new Date('2022-12-08T00:00:00.000Z').valueOf();
sats=[{"INCLINATION":"53.2179","OBJECT_TYPE":"PAYLOAD","MEAN_ANOMALY":"304.9286","ARG_OF_PERICENTER":"55.1959","SITE":"AFETR","RCS_SIZE":"LARGE","OBJECT_ID":"2022-045AX","MEAN_MOTION_DDOT":"0.0000000000000","ECCENTRICITY":"0.00026890","CLASSIFICATION_TYPE":"U","TLE_LINE1":"1 52376U 22045AX  22341.86181963  .00000672  00000-0  60302-4 0  9990","LAUNCH_DATE":"2022-04-29","CENTER_NAME":"EARTH","REF_FRAME":"TEME","EPOCH":"2022-12-07T20:41:01.216032","MEAN_MOTION_DOT":"0.00000672","MEAN_ELEMENT_THEORY":"SGP4","REV_AT_EPOCH":"3660","PERIAPSIS":"537.831","BSTAR":"0.00006030200000","EPHEMERIS_TYPE":"0","GP_ID":"219718153","PERIOD":"95.436","TLE_LINE2":"2 52376  53.2179 121.4799 0002689  55.1959 304.9286 15.08857635 36609","RA_OF_ASC_NODE":"121.4799","ELEMENT_SET_NO":"999","FILE":"3684118","SEMIMAJOR_AXIS":"6917.826","DECAY_DATE":null,"OBJECT_NAME":"STARLINK-3767","MEAN_MOTION":"15.08857635","NORAD_CAT_ID":"52376","APOAPSIS":"541.552","TIME_SYSTEM":"UTC","COUNTRY_CODE":"US"},{"COUNTRY_CODE":"US","TIME_SYSTEM":"UTC","APOAPSIS":"541.414","NORAD_CAT_ID":"52377","MEAN_MOTION":"15.08841040","DECAY_DATE":null,"OBJECT_NAME":"STARLINK-3805","SEMIMAJOR_AXIS":"6917.877","FILE":"3684212","ELEMENT_SET_NO":"999","RA_OF_ASC_NODE":"122.3831","TLE_LINE2":"2 52377  53.2190 122.3831 0002417  55.2732 304.8488 15.08841040 36560","PERIOD":"95.437","GP_ID":"219742670","EPHEMERIS_TYPE":"0","BSTAR":"0.00003992500000","PERIAPSIS":"538.070","REV_AT_EPOCH":"3656","MEAN_ELEMENT_THEORY":"SGP4","MEAN_MOTION_DOT":"0.00000347","EPOCH":"2022-12-07T15:56:15.131328","REF_FRAME":"TEME","CENTER_NAME":"EARTH","LAUNCH_DATE":"2022-04-29","TLE_LINE1":"1 52377U 22045AY  22341.66406402  .00000347  00000-0  39925-4 0  9993","CLASSIFICATION_TYPE":"U","ECCENTRICITY":"0.00024170","MEAN_MOTION_DDOT":"0.0000000000000","OBJECT_ID":"2022-045AY","RCS_SIZE":"LARGE","SITE":"AFETR","ARG_OF_PERICENTER":"55.2732","MEAN_ANOMALY":"304.8488","OBJECT_TYPE":"PAYLOAD","INCLINATION":"53.2190"},{"INCLINATION":"53.2183","OBJECT_TYPE":"PAYLOAD","ARG_OF_PERICENTER":"55.4632","MEAN_ANOMALY":"304.6613","MEAN_MOTION_DDOT":"0.0000000000000","OBJECT_ID":"2022-045AZ","CLASSIFICATION_TYPE":"U","ECCENTRICITY":"0.00026790","SITE":"AFETR","RCS_SIZE":"LARGE","CENTER_NAME":"EARTH","LAUNCH_DATE":"2022-04-29","REF_FRAME":"TEME","TLE_LINE1":"1 52378U 22045AZ  22341.78823103 -.00000079  00000-0  13149-4 0  9991","PERIAPSIS":"537.887","REV_AT_EPOCH":"3659","BSTAR":"0.00001314900000","MEAN_MOTION_DOT":"-0.00000079","EPOCH":"2022-12-07T18:55:03.160992","MEAN_ELEMENT_THEORY":"SGP4","PERIOD":"95.437","GP_ID":"219741420","EPHEMERIS_TYPE":"0","SEMIMAJOR_AXIS":"6917.875","OBJECT_NAME":"STARLINK-3806","DECAY_DATE":null,"RA_OF_ASC_NODE":"121.8147","ELEMENT_SET_NO":"999","TLE_LINE2":"2 52378  53.2183 121.8147 0002679  55.4632 304.6613 15.08841802 36595","FILE":"3684212","COUNTRY_CODE":"US","TIME_SYSTEM":"UTC","MEAN_MOTION":"15.08841802","APOAPSIS":"541.593","NORAD_CAT_ID":"52378"},{"ECCENTRICITY":"0.00022900","CLASSIFICATION_TYPE":"U","OBJECT_ID":"2022-045BA","MEAN_MOTION_DDOT":"0.0000000000000","RCS_SIZE":"LARGE","SITE":"AFETR","REF_FRAME":"TEME","LAUNCH_DATE":"2022-04-29","CENTER_NAME":"EARTH","TLE_LINE1":"1 52379U 22045BA  22341.65944103 -.00000768  00000-0 -30149-4 0  9997","INCLINATION":"53.2202","MEAN_ANOMALY":"310.8659","ARG_OF_PERICENTER":"49.2532","OBJECT_TYPE":"PAYLOAD","OBJECT_NAME":"STARLINK-3800","DECAY_DATE":null,"SEMIMAJOR_AXIS":"6917.910","FILE":"3684212","TLE_LINE2":"2 52379  53.2202 122.4007 0002290  49.2532 310.8659 15.08830253 36574","ELEMENT_SET_NO":"999","RA_OF_ASC_NODE":"122.4007","TIME_SYSTEM":"UTC","COUNTRY_CODE":"US","NORAD_CAT_ID":"52379","APOAPSIS":"541.359","MEAN_MOTION":"15.08830253","BSTAR":"-0.00003014900000","REV_AT_EPOCH":"3657","PERIAPSIS":"538.191","MEAN_ELEMENT_THEORY":"SGP4","EPOCH":"2022-12-07T15:49:35.704992","MEAN_MOTION_DOT":"-0.00000768","PERIOD":"95.438","EPHEMERIS_TYPE":"0","GP_ID":"219741670"},{"CLASSIFICATION_TYPE":"U","ECCENTRICITY":"0.00023980","OBJECT_ID":"2022-045BB","MEAN_MOTION_DDOT":"0.0000000000000","RCS_SIZE":"LARGE","SITE":"AFETR","REF_FRAME":"TEME","CENTER_NAME":"EARTH","LAUNCH_DATE":"2022-04-29","TLE_LINE1":"1 52380U 22045BB  22341.56931751 -.00001014  00000-0 -45581-4 0  9995","INCLINATION":"53.2189","ARG_OF_PERICENTER":"55.6797","MEAN_ANOMALY":"304.4422","OBJECT_TYPE":"PAYLOAD","OBJECT_NAME":"STARLINK-3793","DECAY_DATE":null,"SEMIMAJOR_AXIS":"6917.898","FILE":"3684212","RA_OF_ASC_NODE":"112.7895","ELEMENT_SET_NO":"999","TLE_LINE2":"2 52380  53.2189 112.7895 0002398  55.6797 304.4422 15.08834128 36695","COUNTRY_CODE":"US","TIME_SYSTEM":"UTC","APOAPSIS":"541.422","NORAD_CAT_ID":"52380","MEAN_MOTION":"15.08834128","BSTAR":"-0.00004558100000","PERIAPSIS":"538.104","REV_AT_EPOCH":"3669","MEAN_ELEMENT_THEORY":"SGP4","MEAN_MOTION_DOT":"-0.00001014","EPOCH":"2022-12-07T13:39:49.032864","PERIOD":"95.438","GP_ID":"219742921","EPHEMERIS_TYPE":"0"},{"PERIOD":"95.438","GP_ID":"219743170","EPHEMERIS_TYPE":"0","PERIAPSIS":"537.582","REV_AT_EPOCH":"3659","BSTAR":"0.00000448990000","MEAN_MOTION_DOT":"-0.00000217","EPOCH":"2022-12-07T18:49:45.520032","MEAN_ELEMENT_THEORY":"SGP4","COUNTRY_CODE":"US","TIME_SYSTEM":"UTC","MEAN_MOTION":"15.08835741","APOAPSIS":"541.935","NORAD_CAT_ID":"52381","SEMIMAJOR_AXIS":"6917.893","OBJECT_NAME":"STARLINK-3803","DECAY_DATE":null,"RA_OF_ASC_NODE":"121.8364","ELEMENT_SET_NO":"999","TLE_LINE2":"2 52381  53.2191 121.8364 0003146  53.8420 306.2862 15.08835741 36595","FILE":"3684212","OBJECT_TYPE":"PAYLOAD","ARG_OF_PERICENTER":"53.8420","MEAN_ANOMALY":"306.2862","INCLINATION":"53.2191","CENTER_NAME":"EARTH","LAUNCH_DATE":"2022-04-29","REF_FRAME":"TEME","TLE_LINE1":"1 52381U 22045BC  22341.78455463 -.00000217  00000-0  44899-5 0  9996","OBJECT_ID":"2022-045BC","MEAN_MOTION_DDOT":"0.0000000000000","CLASSIFICATION_TYPE":"U","ECCENTRICITY":"0.00031460","SITE":"AFETR","RCS_SIZE":"LARGE"},{"TIME_SYSTEM":"UTC","COUNTRY_CODE":"US","MEAN_MOTION":"15.08840513","NORAD_CAT_ID":"52382","APOAPSIS":"544.317","SEMIMAJOR_AXIS":"6917.879","OBJECT_NAME":"STARLINK-3799","DECAY_DATE":null,"TLE_LINE2":"2 52382  53.2210 121.8639 0006610 327.2156  32.8425 15.08840513 36596","ELEMENT_SET_NO":"999","RA_OF_ASC_NODE":"121.8639","FILE":"3684212","PERIOD":"95.438","EPHEMERIS_TYPE":"0","GP_ID":"219741921","REV_AT_EPOCH":"3659","PERIAPSIS":"535.171","BSTAR":"-0.00003019400000","EPOCH":"2022-12-07T18:44:26.215008","MEAN_MOTION_DOT":"-0.00000771","MEAN_ELEMENT_THEORY":"SGP4","LAUNCH_DATE":"2022-04-29","CENTER_NAME":"EARTH","REF_FRAME":"TEME","TLE_LINE1":"1 52382U 22045BD  22341.78085897 -.00000771  00000-0 -30194-4 0  9995","MEAN_MOTION_DDOT":"0.0000000000000","OBJECT_ID":"2022-045BD","ECCENTRICITY":"0.00066100","CLASSIFICATION_TYPE":"U","SITE":"AFETR","RCS_SIZE":"LARGE","OBJECT_TYPE":"PAYLOAD","MEAN_ANOMALY":"32.8425","ARG_OF_PERICENTER":"327.2156","INCLINATION":"53.2210"},{"LAUNCH_DATE":"2022-04-29","CENTER_NAME":"EARTH","REF_FRAME":"TEME","TLE_LINE1":"1 52383U 22045BE  22341.66867417 -.00001748  00000-0 -91716-4 0  9991","MEAN_MOTION_DDOT":"0.0000000000000","OBJECT_ID":"2022-045BE","ECCENTRICITY":"0.00029060","CLASSIFICATION_TYPE":"U","SITE":"AFETR","RCS_SIZE":"LARGE","OBJECT_TYPE":"PAYLOAD","MEAN_ANOMALY":"306.0961","ARG_OF_PERICENTER":"54.0301","INCLINATION":"53.2198","TIME_SYSTEM":"UTC","COUNTRY_CODE":"US","MEAN_MOTION":"15.08833330","NORAD_CAT_ID":"52383","APOAPSIS":"541.776","SEMIMAJOR_AXIS":"6917.901","DECAY_DATE":null,"OBJECT_NAME":"STARLINK-3811","TLE_LINE2":"2 52383  53.2198 112.3557 0002906  54.0301 306.0961 15.08833330 36711","ELEMENT_SET_NO":"999","RA_OF_ASC_NODE":"112.3557","FILE":"3684212","PERIOD":"95.438","EPHEMERIS_TYPE":"0","GP_ID":"219742171","REV_AT_EPOCH":"3671","PERIAPSIS":"537.755","BSTAR":"-0.00009171600000","EPOCH":"2022-12-07T16:02:53.448288","MEAN_MOTION_DOT":"-0.00001748","MEAN_ELEMENT_THEORY":"SGP4"},{"INCLINATION":"53.2201","MEAN_ANOMALY":"331.5651","ARG_OF_PERICENTER":"28.5473","OBJECT_TYPE":"PAYLOAD","RCS_SIZE":"LARGE","SITE":"AFETR","ECCENTRICITY":"0.00024180","CLASSIFICATION_TYPE":"U","MEAN_MOTION_DDOT":"0.0000000000000","OBJECT_ID":"2022-049A","TLE_LINE1":"1 52451U 22049A   22341.76246924  .00000366  00000-0  41105-4 0  9996","REF_FRAME":"TEME","LAUNCH_DATE":"2022-05-06","CENTER_NAME":"EARTH","MEAN_ELEMENT_THEORY":"SGP4","EPOCH":"2022-12-07T18:17:57.342336","MEAN_MOTION_DOT":"0.00000366","BSTAR":"0.00004110500000","REV_AT_EPOCH":"3277","PERIAPSIS":"538.063","EPHEMERIS_TYPE":"0","GP_ID":"219742928","PERIOD":"95.437","FILE":"3684212","TLE_LINE2":"2 52451  53.2201   1.9305 0002418  28.5473 331.5651 15.08843144 32775","RA_OF_ASC_NODE":"1.9305","ELEMENT_SET_NO":"999","DECAY_DATE":null,"OBJECT_NAME":"STARLINK-3870","SEMIMAJOR_AXIS":"6917.871","NORAD_CAT_ID":"52451","APOAPSIS":"541.409","MEAN_MOTION":"15.08843144","TIME_SYSTEM":"UTC","COUNTRY_CODE":"US"},{"INCLINATION":"53.2172","OBJECT_TYPE":"PAYLOAD","MEAN_ANOMALY":"320.3559","ARG_OF_PERICENTER":"39.7594","SITE":"AFETR","RCS_SIZE":"LARGE","OBJECT_ID":"2022-049B","MEAN_MOTION_DDOT":"0.0000000000000","ECCENTRICITY":"0.00021950","CLASSIFICATION_TYPE":"U","TLE_LINE1":"1 52452U 22049B   22341.78550881  .00000038  00000-0  20489-4 0  9997","LAUNCH_DATE":"2022-05-06","CENTER_NAME":"EARTH","REF_FRAME":"TEME","EPOCH":"2022-12-07T18:51:07.961184","MEAN_MOTION_DOT":"0.00000038","MEAN_ELEMENT_THEORY":"SGP4","REV_AT_EPOCH":"3277","PERIAPSIS":"538.245","BSTAR":"0.00002048900000","EPHEMERIS_TYPE":"0","GP_ID":"219743177","PERIOD":"95.438","TLE_LINE2":"2 52452  53.2172   1.8385 0002195  39.7594 320.3559 15.08833940 32776","ELEMENT_SET_NO":"999","RA_OF_ASC_NODE":"1.8385","FILE":"3684212","SEMIMAJOR_AXIS":"6917.899","DECAY_DATE":null,"OBJECT_NAME":"STARLINK-3909","MEAN_MOTION":"15.08833940","NORAD_CAT_ID":"52452","APOAPSIS":"541.282","TIME_SYSTEM":"UTC","COUNTRY_CODE":"US"}];
